SL-8 R/B                
1 15483U 85006B   26181.10646050  .00000164  00000+0  62994-4 0  9994
2 15483  74.0457  54.2903 0019169 299.4583 175.3676 14.37839735170181
SL-12 R/B(2)            
1 15772U 85042D   26181.46524426  .00000012  00000+0  26844-4 0  9992
2 15772  71.1063 209.4631 0036933 307.8829 153.9932 14.22008270130426
SL-14 R/B               
1 15945U 85069B   26181.36254930  .00000449  00000+0  47777-4 0  9994
2 15945  82.5274 278.9751 0018917 174.4533 185.6898 14.86525469189571
SL-16 R/B               
1 16182U 85097B   26181.47712644  .00000033  00000+0  40555-4 0  9998
2 16182  71.0033 263.0988 0005252  82.1312   4.8807 14.16614640103207
SL-14 R/B               
1 16496U 86006B   26181.44290705  .00000487  00000+0  49103-4 0  9994
2 16496  82.5270 153.6388 0074709 258.6253 100.6565 14.86957466165960
COSMOS 1743             
1 16719U 86034A   26181.42491615  .00046459  00000+0  41530-3 0  9998
2 16719  82.5281 314.6448 0004765 222.8752 137.2138 15.68171458197864
SL-14 R/B               
1 16792U 86046B   26181.48842186  .00000450  00000+0  48955-4 0  9991
2 16792  82.4825 333.6057 0022249 212.0221 147.9645 14.85680522143153
SL-14 R/B               
1 16882U 86055B   26181.54170087  .00000367  00000+0  39441-4 0  9999
2 16882  82.5197  20.5760 0017904 322.6328  67.1730 14.85731608136126
AJISAI (EGS)            
1 16908U 86061A   26181.54232382 -.00000110  00000+0 -88214-4 0  9992
2 16908  50.0093 106.3281 0011142 214.5476 195.2078 12.44516712482056
SL-14 R/B               
1 17567U 87024B   26181.48082980  .00000428  00000+0  45918-4 0  9998
2 17567  82.5283 346.7538 0016801 245.1795 114.7675 14.86222219104880
COSMOS 1833             
1 17589U 87027A   26181.13355977  .00000272  00000+0  17098-3 0  9990
2 17589  70.9206  89.6571 0023289  33.5210 326.7379 14.13059506 26201
SL-16 R/B               
1 17590U 87027B   26181.55652788  .00000153  00000+0  99817-4 0  9996
2 17590  71.0033  38.6558 0006901 297.9716  62.0709 14.17174470 31330
SL-14 R/B               
1 17912U 87038B   26181.46649262  .00000357  00000+0  38488-4 0  9992
2 17912  82.5003 190.5636 0020059 147.9096 212.3346 14.85452904 95975
COSMOS 1844             
1 17973U 87041A   26181.33062074  .00000299  00000+0  18026-3 0  9999
2 17973  70.8973 156.5827 0032197 216.2958 143.5980 14.14570670 19513
SL-14 R/B               
1 18153U 87055B   26181.55824064  .00000359  00000+0  38442-4 0  9996
2 18153  82.4986 242.6249 0020628   4.7783 355.3626 14.85719263 86698
COSMOS 1867             
1 18187U 87060A   26180.91777125 -.00000047  00000+0  19860-4 0  9991
2 18187  65.0117 352.4051 0016809 282.1407  77.7794 14.31517083 36008
SL-14 R/B               
1 18749U 88001B   26181.22443121  .00000391  00000+0  42284-4 0  9999
2 18749  82.5134  89.5088 0016893 222.6134 137.3773 14.85618162 58735
COSMOS 1933             
1 18958U 88020A   26181.34639868  .00003677  00000+0  17530-3 0  9995
2 18958  82.5133 139.4036 0004930 145.5248 214.6307 15.18799196 67323
SL-3 R/B                
1 19046U 88032B   26181.53337183  .00003625  00000+0  16570-3 0  9999
2 19046  97.5259 164.5614 0024983 196.2057 163.8382 15.20934243 69258
SL-16 R/B               
1 19120U 88039B   26181.43819609 -.00000052  00000+0 -20307-5 0  9994
2 19120  71.0127 190.1384 0021458 173.0067 187.1362 14.19630620974384
COSMOS 1953             
1 19210U 88050A   26181.09856309  .00007275  00000+0  24774-3 0  9999
2 19210  82.5070  45.0130 0012395  86.9914 273.2744 15.30150879 54969
SL-8 R/B                
1 19257U 88053B   26181.42629906  .00000193  00000+0  70873-4 0  9995
2 19257  74.0477 264.6537 0019277  55.0886  21.1973 14.38972447992817
COSMOS 1975             
1 19573U 88093A   26181.50144892  .00006745  00000+0  23427-3 0  9996
2 19573  82.5187   4.3066 0012368 128.3104 231.9251 15.29497833 36649
SL-14 R/B               
1 19574U 88093B   26181.40638578  .00000415  00000+0  44850-4 0  9997
2 19574  82.5320 296.2344 0021316  29.0140  36.6076 14.85751316 17756
SL-16 R/B               
1 19650U 88102B   26181.49641351  .00000153  00000+0  10132-3 0  9999
2 19650  71.0004 274.1347 0015111 206.8921 153.1420 14.16168757942861
INTERCOSMOS 24          
1 20261U 89080A   26181.51790337  .00000652  00000+0  18534-3 0  9995
2 20261  82.6051  30.9700 1187969  30.9996 335.5989 12.59680001681000
SL-14 R/B               
1 20262U 89080C   26181.28203706  .00000135  00000+0  40608-4 0  9993
2 20262  82.5942 100.8950 1228387 287.4270  59.6374 12.50575277674224
DELTA 1 R/B             
1 20323U 89089B   26181.46206068  .00000304  00000+0  83355-4 0  9998
2 20323  97.0632  10.8959 0070246 125.5373 235.2403 14.50739394912080
ARIANE 40 R/B           
1 20443U 90005H   26181.17796171  .00000250  00000+0  92809-4 0  9992
2 20443  98.2954 238.3899 0009309 220.5342 139.5154 14.39933990908996
DELTA 2 R/B(1)          
1 20453U 90008B   26181.35444669  .00085618  00000+0  57860-3 0  9996
2 20453  35.5995 147.4369 0064348 238.5868 120.8567 15.70903577943774
